{
  "type": "FeatureCollection",
  "features": [
    {
      "type": "Feature",
      "properties": {
        "norad_id": 30838,
        "name": "FENGYUN 1C DEB",
        "group": "fengyun-1c-debris",
        "lat": 79.74834790417164,
        "lon": -148.72040789760962,
        "alt_km": 705.1111002270663,
        "timestamp": "2025-12-24T07:45:06.478697+00:00",
        "meta_object_name": "FENGYUN 1C DEB",
        "meta_object_id": "1999-025AVY",
        "meta_epoch": "2025-12-22T23:50:55.464000",
        "meta_mean_motion": 14.4790111,
        "meta_eccentricity": 0.00349609,
        "meta_inclination": 99.0431,
        "meta_ra_of_asc_node": 271.5703,
        "meta_arg_of_pericenter": 126.0695,
        "meta_mean_anomaly": 234.3743,
        "meta_ephemeris_type": 0,
        "meta_classification_type": "U",
        "meta_norad_cat_id": 30838,
        "meta_element_set_no": 999,
        "meta_rev_at_epoch": 97462,
        "meta_bstar": 0.0026410277,
        "meta_mean_motion_dot": 9.826e-05,
        "meta_mean_motion_ddot": 0,
        "tle_line1": "1 30838U 99025AVY 25356.99369750  .00009826  00000+0  26410-2 0  9995",
        "tle_line2": "2 30838  99.0431 271.5703 0034960 126.0695 234.3743 14.47901110974628"
      },
      "geometry": {
        "type": "Point",
        "coordinates": [
          -148.72040789760962,
          79.74834790417164
        ]
      }
    },
    {
      "type": "Feature",
      "properties": {
        "norad_id": 30840,
        "name": "FENGYUN 1C DEB",
        "group": "fengyun-1c-debris",
        "lat": 46.134205784020565,
        "lon": 0.888231139048442,
        "alt_km": 636.4375950717849,
        "timestamp": "2025-12-24T07:45:06.478709+00:00",
        "meta_object_name": "FENGYUN 1C DEB",
        "meta_object_id": "1999-025AWA",
        "meta_epoch": "2025-12-23T23:19:39.076320",
        "meta_mean_motion": 14.61215259,
        "meta_eccentricity": 0.02165948,
        "meta_inclination": 98.0224,
        "meta_ra_of_asc_node": 8.9851,
        "meta_arg_of_pericenter": 335.307,
        "meta_mean_anomaly": 23.7881,
        "meta_ephemeris_type": 0,
        "meta_classification_type": "U",
        "meta_norad_cat_id": 30840,
        "meta_element_set_no": 999,
        "meta_rev_at_epoch": 73295,
        "meta_bstar": 0.00080130516,
        "meta_mean_motion_dot": 5.461e-05,
        "meta_mean_motion_ddot": 0,
        "tle_line1": "1 30840U 99025AWA 25357.97198005  .00005461  00000+0  80131-3 0  9992",
        "tle_line2": "2 30840  98.0224   8.9851 0216594 335.3070  23.7881 14.61215259732952"
      },
      "geometry": {
        "type": "Point",
        "coordinates": [
          0.888231139048442,
          46.134205784020565
        ]
      }
    },
    {
      "type": "Feature",
      "properties": {
        "norad_id": 30843,
        "name": "FENGYUN 1C DEB",
        "group": "fengyun-1c-debris",
        "lat": -51.246126788638726,
        "lon": -120.61289581932063,
        "alt_km": 812.8374370546007,
        "timestamp": "2025-12-24T07:45:06.478722+00:00",
        "meta_object_name": "FENGYUN 1C DEB",
        "meta_object_id": "1999-025AWD",
        "meta_epoch": "2025-12-23T10:51:33.645600",
        "meta_mean_motion": 14.52490524,
        "meta_eccentricity": 0.01488749,
        "meta_inclination": 98.8411,
        "meta_ra_of_asc_node": 69.6508,
        "meta_arg_of_pericenter": 87.4066,
        "meta_mean_anomaly": 274.416,
        "meta_ephemeris_type": 0,
        "meta_classification_type": "U",
        "meta_norad_cat_id": 30843,
        "meta_element_set_no": 999,
        "meta_rev_at_epoch": 99480,
        "meta_bstar": 0.00012304486,
        "meta_mean_motion_dot": 5.24e-06,
        "meta_mean_motion_ddot": 0,
        "tle_line1": "1 30843U 99025AWD 25357.45247275  .00000524  00000+0  12304-3 0  9994",
        "tle_line2": "2 30843  98.8411  69.6508 0148874  87.4066 274.4160 14.52490524994808"
      },
      "geometry": {
        "type": "Point",
        "coordinates": [
          -120.61289581932063,
          -51.246126788638726
        ]
      }
    },
    {
      "type": "Feature",
      "properties": {
        "norad_id": 30845,
        "name": "FENGYUN 1C DEB",
        "group": "fengyun-1c-debris",
        "lat": -67.24892835054408,
        "lon": 156.9594493174244,
        "alt_km": 842.9248959348324,
        "timestamp": "2025-12-24T07:45:06.478732+00:00",
        "meta_object_name": "FENGYUN 1C DEB",
        "meta_object_id": "1999-025AWF",
        "meta_epoch": "2025-12-21T18:21:33.686208",
        "meta_mean_motion": 13.76864531,
        "meta_eccentricity": 0.01921106,
        "meta_inclination": 98.379,
        "meta_ra_of_asc_node": 355.2796,
        "meta_arg_of_pericenter": 245.9079,
        "meta_mean_anomaly": 290.0104,
        "meta_ephemeris_type": 0,
        "meta_classification_type": "U",
        "meta_norad_cat_id": 30845,
        "meta_element_set_no": 999,
        "meta_rev_at_epoch": 94367,
        "meta_bstar": 0.00027550575,
        "meta_mean_motion_dot": 2.73e-06,
        "meta_mean_motion_ddot": 0,
        "tle_line1": "1 30845U 99025AWF 25355.76497322  .00000273  00000+0  27551-3 0  9999",
        "tle_line2": "2 30845  98.3790 355.2796 0192110 245.9079 290.0104 13.76864531943674"
      },
      "geometry": {
        "type": "Point",
        "coordinates": [
          156.9594493174244,
          -67.24892835054408
        ]
      }
    },
    {
      "type": "Feature",
      "properties": {
        "norad_id": 30846,
        "name": "FENGYUN 1C DEB",
        "group": "fengyun-1c-debris",
        "lat": -75.51736954118863,
        "lon": -147.93251568891645,
        "alt_km": 724.6331033419847,
        "timestamp": "2025-12-24T07:45:06.478742+00:00",
        "meta_object_name": "FENGYUN 1C DEB",
        "meta_object_id": "1999-025AWG",
        "meta_epoch": "2025-12-23T06:18:07.356096",
        "meta_mean_motion": 14.41591186,
        "meta_eccentricity": 0.00539356,
        "meta_inclination": 99.3211,
        "meta_ra_of_asc_node": 171.4269,
        "meta_arg_of_pericenter": 305.526,
        "meta_mean_anomaly": 235.7251,
        "meta_ephemeris_type": 0,
        "meta_classification_type": "U",
        "meta_norad_cat_id": 30846,
        "meta_element_set_no": 999,
        "meta_rev_at_epoch": 98081,
        "meta_bstar": 0.0007453984,
        "meta_mean_motion_dot": 2.415e-05,
        "meta_mean_motion_ddot": 0,
        "tle_line1": "1 30846U 99025AWG 25357.26258514  .00002415  00000+0  74540-3 0  9995",
        "tle_line2": "2 30846  99.3211 171.4269 0053935 305.5260 235.7251 14.41591186980815"
      },
      "geometry": {
        "type": "Point",
        "coordinates": [
          -147.93251568891645,
          -75.51736954118863
        ]
      }
    },
    {
      "type": "Feature",
      "properties": {
        "norad_id": 30847,
        "name": "FENGYUN 1C DEB",
        "group": "fengyun-1c-debris",
        "lat": 51.78753782074868,
        "lon": 147.01300522762477,
        "alt_km": 852.2589216211218,
        "timestamp": "2025-12-24T07:45:06.478756+00:00",
        "meta_object_name": "FENGYUN 1C DEB",
        "meta_object_id": "1999-025AWH",
        "meta_epoch": "2025-12-22T09:53:15.168768",
        "meta_mean_motion": 14.17087806,
        "meta_eccentricity": 0.00657463,
        "meta_inclination": 98.7316,
        "meta_ra_of_asc_node": 156.3936,
        "meta_arg_of_pericenter": 300.3039,
        "meta_mean_anomaly": 88.1206,
        "meta_ephemeris_type": 0,
        "meta_classification_type": "U",
        "meta_norad_cat_id": 30847,
        "meta_element_set_no": 999,
        "meta_rev_at_epoch": 96192,
        "meta_bstar": 0.0017771949,
        "meta_mean_motion_dot": 3.611e-05,
        "meta_mean_motion_ddot": 0,
        "tle_line1": "1 30847U 99025AWH 25356.41198112  .00003611  00000+0  17772-2 0  9991",
        "tle_line2": "2 30847  98.7316 156.3936 0065746 300.3039  88.1206 14.17087806961921"
      },
      "geometry": {
        "type": "Point",
        "coordinates": [
          147.01300522762477,
          51.78753782074868
        ]
      }
    },
    {
      "type": "Feature",
      "properties": {
        "norad_id": 30848,
        "name": "FENGYUN 1C DEB",
        "group": "fengyun-1c-debris",
        "lat": 20.035014206324448,
        "lon": 17.053444350024535,
        "alt_km": 801.2200728366033,
        "timestamp": "2025-12-24T07:45:06.478766+00:00",
        "meta_object_name": "FENGYUN 1C DEB",
        "meta_object_id": "1999-025AWJ",
        "meta_epoch": "2025-12-23T00:52:33.446208",
        "meta_mean_motion": 14.34545342,
        "meta_eccentricity": 0.00435447,
        "meta_inclination": 99.059,
        "meta_ra_of_asc_node": 192.3701,
        "meta_arg_of_pericenter": 305.8532,
        "meta_mean_anomaly": 53.8611,
        "meta_ephemeris_type": 0,
        "meta_classification_type": "U",
        "meta_norad_cat_id": 30848,
        "meta_element_set_no": 999,
        "meta_rev_at_epoch": 97454,
        "meta_bstar": 0.0011617918,
        "meta_mean_motion_dot": 3.267e-05,
        "meta_mean_motion_ddot": 0,
        "tle_line1": "1 30848U 99025AWJ 25357.03649822  .00003267  00000+0  11618-2 0  9990",
        "tle_line2": "2 30848  99.0590 192.3701 0043544 305.8532  53.8611 14.34545342974544"
      },
      "geometry": {
        "type": "Point",
        "coordinates": [
          17.053444350024535,
          20.035014206324448
        ]
      }
    }
  ]
}